{"fetched_at":"2026-03-29T16:36:15Z","count":15609,"tles":[{"name":"STARLINK-31845","line1":"1 60129U 24118S   26087.87209739 -.00001068  00000+0 -23940-4 0  9990","line2":"2 60129  53.1603 295.4553 0000924  77.0141 283.0963 15.30194318 98661","category":"Starlink"}]}