{
  "norad_id": 60129,
  "name": "STARLINK-31845",
  "history": [
    {
      "epoch": "2026-03-28T20:55:49.214496",
      "apogee_km": 475.86590300167154,
      "perigee_km": 474.5981667975966,
      "latitude_deg": 33.09078882597312,
      "longitude_deg": -83.37865056027658,
      "semi_major_axis_km": 6853.369034899634,
      "eccentricity": 9.249e-05,
      "inclination_deg": 53.1603,
      "raan_deg": 295.4553,
      "arg_perigee_deg": 77.0141,
      "mean_anomaly_deg": 283.0963,
      "mean_motion_rev_day": 15.30194318
    }
  ]
}